     2.100          NAVIGATION                              RINEX VERSION / TYPE
fic2rin                                 09/27/2015 00:06:43 PGM / RUN BY / DATE
                                                            END OF HEADER
18 15  9 26 10  0  0.0  .437322538346D-03  .329691829393D-11  .000000000000D+00
     .840000000000D+02  .286562500000D+02  .488377485740D-08  .218484928852D+01
     .143237411976D-05  .163640317041D-01  .128094106913D-04  .515364002991D+04
     .554400000000D+06  .115483999252D-06 -.304313958056D+01 -.383704900742D-06
     .925544640146D+00  .109500000000D+03 -.193621111442D+01 -.802247702551D-08
     .405016870578D-09  .100000000000D+01  .186300000000D+04  .000000000000D+00
     .240000000000D+01  .000000000000D+00 -.111758708954D-07  .840000000000D+02
     .547206000000D+06  .400000000000D+01
19 15  9 26 10  0  0.0 -.520660076290D-03 -.568434188608D-12  .000000000000D+00
     .104000000000D+03  .893750000000D+01  .492663378550D-08 -.765511199437D+00
     .560656189919D-06  .113497962011D-01  .216253101826D-05  .515513435936D+04
     .554400000000D+06  .137835741043D-06  .126384792041D+01  .117346644402D-06
     .970457138041D+00  .341031250000D+03  .652394031607D+00 -.864714590262D-08
    -.257153568621D-10  .100000000000D+01  .186300000000D+04  .000000000000D+00
     .340000000000D+01  .000000000000D+00 -.149011611938D-07  .104000000000D+03
     .547206000000D+06  .400000000000D+01
20 15  9 26 10  0  0.0  .358335673809D-03  .306954461848D-11  .000000000000D+00
     .300000000000D+01  .230312500000D+02  .491449042254D-08 -.220658458510D-01
     .141747295856D-05  .489965069573D-02  .129453837872D-04  .515365176010D+04
     .554400000000D+06 -.707805156708D-07 -.309526679982D+01  .800937414169D-07
     .926763781946D+00  .112656250000D+03  .123060711691D+01 -.825070081766D-08
     .361086469272D-09  .100000000000D+01  .186300000000D+04  .000000000000D+00
     .240000000000D+01  .000000000000D+00 -.838190317154D-08  .300000000000D+01
     .547206000000D+06  .400000000000D+01
21 15  9 26 10  0  0.0 -.482465606183D-03 -.272848410532D-11  .000000000000D+00
     .430000000000D+02 -.128312500000D+03  .499342228180D-08 -.313242726116D+01
    -.662542879581D-05  .225820761407D-01  .777468085289D-05  .515375710487D+04
     .554400000000D+06  .236555933952D-06  .219749019833D+01 -.203028321266D-06
     .934593813972D+00  .211281250000D+03 -.187653396805D+01 -.806783605776D-08
    -.519664503255D-09  .100000000000D+01  .186300000000D+04  .000000000000D+00
     .240000000000D+01  .000000000000D+00 -.116415321827D-07  .430000000000D+02
     .547206000000D+06  .400000000000D+01
22 15  9 26 10  0  0.0  .395052134991D-03  .386535248253D-11  .000000000000D+00
     .830000000000D+02  .335625000000D+02  .505628204301D-08  .170082289364D+01
     .172108411789D-05  .801444612443D-02  .123940408230D-04  .515368975258D+04
     .554400000000D+06 -.175088644028D-06 -.304219185102D+01 -.169500708580D-06
     .923370590274D+00  .121562500000D+03 -.204202530303D+01 -.833677583161D-08
     .350014579512D-09  .100000000000D+01  .186300000000D+04  .000000000000D+00
     .340000000000D+01  .000000000000D+00 -.176951289177D-07  .830000000000D+02
     .547206000000D+06  .400000000000D+01
24 15  9 26 10  0  0.0 -.531924888492D-05 -.682121026330D-12  .000000000000D+00
     .410000000000D+02 -.850000000000D+02  .487127433670D-08 -.121419686554D+01
    -.447779893875D-05  .345007411670D-02  .922568142414D-05  .515365421295D+04
     .554400000000D+06  .707805156708D-07 -.942300668297D+00 -.145286321640D-06
     .952003924499D+00  .196375000000D+03  .299368951747D+00 -.828034490960D-08
    -.536808074497D-09  .100000000000D+01  .186300000000D+04  .000000000000D+00
     .240000000000D+01  .000000000000D+00  .232830643654D-08  .410000000000D+02
     .547206000000D+06  .400000000000D+01
25 15  9 26 10  0  0.0 -.439635477960D-04 -.522959453519D-11  .000000000000D+00
     .590000000000D+02  .685312500000D+02  .396230790317D-08  .298393424722D+01
     .352598726749D-05  .464329344686D-02  .127740204334D-04  .515362586975D+04
     .554400000000D+06 -.689178705215D-07  .123245602154D+00 -.102445483208D-06
     .978837208247D+00  .141593750000D+03  .743674905913D+00 -.764889003554D-08
     .302155443130D-09  .100000000000D+01  .186300000000D+04  .000000000000D+00
     .240000000000D+01  .000000000000D+00  .512227416039D-08  .590000000000D+02
     .547206000000D+06  .400000000000D+01
26 15  9 26 10  0  0.0 -.643362291157D-04 -.118234311230D-10  .000000000000D+00
     .430000000000D+02  .713750000000D+02  .444089926699D-08  .197015483834D+01
     .383332371712D-05  .170390238054D-03  .118613243103D-04  .515364624023D+04
     .554400000000D+06 -.409781932831D-07  .118540919054D+00  .596046447754D-07
     .960903220905D+00  .150906250000D+03  .453780483127D+00 -.800926218935D-08
     .311798701953D-09  .100000000000D+01  .186300000000D+04  .000000000000D+00
     .240000000000D+01  .000000000000D+00  .745058059692D-08  .430000000000D+02
     .547206000000D+06  .400000000000D+01
27 15  9 26 10  0  0.0  .226953998208D-04  .295585778076D-11  .000000000000D+00
     .240000000000D+02  .294375000000D+02  .496056377025D-08  .584802473565D+00
     .160560011864D-05  .265541451517D-02  .212527811527D-05  .515369701385D+04
     .554400000000D+06  .391155481339D-07  .116606138942D+01 -.353902578354D-07
     .968357151322D+00  .337968750000D+03  .321018098549D+00 -.860714423639D-08
     .353586156854D-10  .100000000000D+01  .186300000000D+04  .000000000000D+00
     .240000000000D+01  .000000000000D+00  .139698386192D-08  .240000000000D+02
     .547206000000D+06  .400000000000D+01
28 15  9 26 10  0  0.0  .470210798085D-03  .261479726760D-11  .000000000000D+00
     .330000000000D+02  .899062500000D+02  .384194574675D-08  .144873606718D+01
     .442750751972D-05  .196966903750D-01  .127386301756D-04  .515370452309D+04
     .554400000000D+06 -.167638063431D-06  .195170477154D+00 -.471249222755D-06
     .989587429569D+00  .151000000000D+03 -.165703179268D+01 -.779889628391D-08
     .464662212189D-09  .100000000000D+01  .186300000000D+04  .000000000000D+00
     .240000000000D+01  .000000000000D+00 -.111758708954D-07  .330000000000D+02
     .547206000000D+06  .400000000000D+01
30 15  9 26 10  0  0.0  .310335308313D-04  .648014975013D-11  .000000000000D+00
     .580000000000D+02 -.684375000000D+02  .470055293975D-08 -.224119491545D+01
    -.365264713764D-05  .170971150510D-02  .110790133476D-04  .515369593239D+04
     .554400000000D+06  .242143869400D-07 -.851718725046D+00 -.521540641785D-07
     .954684325428D+00  .167218750000D+03  .313648844756D+01 -.816534011919D-08
    -.546451333320D-09  .100000000000D+01  .186300000000D+04  .000000000000D+00
     .240000000000D+01  .000000000000D+00  .325962901115D-08  .580000000000D+02
     .547206000000D+06  .400000000000D+01
31 15  9 26 10  0  0.0  .301468186080D-03 -.136424205266D-11  .000000000000D+00
     .360000000000D+02 -.658125000000D+02  .431375111362D-08 -.218208607033D+01
    -.330433249474D-05  .813443888910D-02  .100508332253D-04  .515360152817D+04
     .554400000000D+06 -.236555933952D-06 -.891054201790D+00  .633299350739D-07
     .973751771458D+00  .196750000000D+03 -.520427750956D+00 -.792997317236D-08
    -.473591155544D-09  .100000000000D+01  .186300000000D+04  .000000000000D+00
     .240000000000D+01  .000000000000D+00 -.135041773319D-07  .360000000000D+02
     .547206000000D+06  .400000000000D+01
32 15  9 26 10  0  0.0 -.322721898556D-04  .111413100967D-10  .000000000000D+00
     .290000000000D+02  .562500000000D+02  .453590322429D-08 -.173263129260D+01
     .283122062683D-05  .113278469071D-01  .119730830193D-04  .515368705559D+04
     .554400000000D+06 -.132247805595D-06 -.293844696442D+01 -.106170773506D-06
     .947379707745D+00  .142875000000D+03  .129678550341D+00 -.798568977889D-08
     .622883088438D-09  .100000000000D+01  .186300000000D+04  .000000000000D+00
     .240000000000D+01  .000000000000D+00 -.372529029846D-08  .290000000000D+02
     .547206000000D+06  .400000000000D+01
10 15  9 26 10  0  0.0  .105332583189D-05  .113686837722D-11  .000000000000D+00
     .990000000000D+02  .498750000000D+02  .535772317068D-08  .974403539499D+00
     .275485217571D-05  .101040896261D-01  .221468508244D-05  .515364076805D+04
     .554400000000D+06  .912696123123D-07  .108974298376D+01  .109896063805D-06
     .949974484079D+00  .325781250000D+03  .146477409806D+00 -.884001107909D-08
     .310727228751D-10  .100000000000D+01  .186300000000D+04  .000000000000D+00
     .240000000000D+01  .630000000000D+02 -.512227416039D-08  .990000000000D+02
     .547236000000D+06  .400000000000D+01
 8 15  9 26  9 59 44.0 -.660587102175D-05 -.136424205266D-11  .000000000000D+00
     .000000000000D+00  .257812500000D+02  .510664128354D-08  .213655045565D+01
     .124424695969D-05  .138187897392D-02  .213831663132D-05  .515357245255D+04
     .554384000000D+06  .745058059692D-08  .116531516515D+01 -.689178705215D-07
     .960278259375D+00  .334718750000D+03 -.178183413277D+01 -.862893085818D-08
     .510735559900D-10  .100000000000D+01  .186300000000D+04  .000000000000D+00
     .240000000000D+01  .000000000000D+00  .745058059692D-08  .000000000000D+00
     .548286000000D+06  .400000000000D+01
19 15  9 26  9 59 44.0 -.520660541952D-03 -.568434188608D-12  .000000000000D+00
     .100000000000D+01  .893750000000D+01  .492663378550D-08 -.767842782180D+00
     .560656189919D-06  .113497995771D-01  .216253101826D-05  .515513435555D+04
     .554384000000D+06  .137835741043D-06  .126384805938D+01  .117346644402D-06
     .970457140967D+00  .341031250000D+03  .652393920425D+00 -.864714590262D-08
    -.257153568621D-10  .100000000000D+01  .186300000000D+04  .000000000000D+00
     .240000000000D+01  .000000000000D+00 -.149011611938D-07  .100000000000D+01
     .551706000000D+06  .400000000000D+01
